PHISAT 2                
1 60470U 24149C   26068.78834181  .00008925  00000+0  31421-3 0  9996
2 60470  97.3806 148.6498 0001175 168.6230 191.5037 15.29548631 86792
STARLINK-34070          
1 63913U 25095Z   26068.33378323  .00030089  00000+0  10985-2 0  9991
2 63913  42.9995 178.1983 0001031 242.7740 117.3007 15.27579271 47725
